[{"OBJECT_NAME":"STARLINK-3820","OBJECT_ID":"2022-045AK","EPOCH":"2026-03-09T15:19:10.956000","MEAN_MOTION":15.08834235,"ECCENTRICITY":0.000123,"INCLINATION":53.2173,"RA_OF_ASC_NODE":189.2632,"ARG_OF_PERICENTER":77.393,"MEAN_ANOMALY":282.7199,"EPHEMERIS_TYPE":0,"CLASSIFICATION_TYPE":"U","NORAD_CAT_ID":52364,"ELEMENT_SET_NO":999,"REV_AT_EPOCH":21591,"BSTAR":-2.5602e-5,"MEAN_MOTION_DOT":-6.95e-6,"MEAN_MOTION_DDOT":0},{"OBJECT_NAME":"OBJECT J","OBJECT_ID":"2017-042J","EPOCH":"2026-03-09T23:17:19.167936","MEAN_MOTION":15.08203331,"ECCENTRICITY":0.00078186,"INCLINATION":97.4246,"RA_OF_ASC_NODE":235.0467,"ARG_OF_PERICENTER":81.5059,"MEAN_ANOMALY":278.7055,"EPHEMERIS_TYPE":0,"CLASSIFICATION_TYPE":"U","NORAD_CAT_ID":42833,"ELEMENT_SET_NO":999,"REV_AT_EPOCH":47205,"BSTAR":0.00039182004,"MEAN_MOTION_DOT":6.006e-5,"MEAN_MOTION_DDOT":0}]
